# 2020  3  9 10 51 18.61  40.4657 -124.4777   29.78  0.00  0.00  0.00  0.00     100000
B045       7.710  0.844 P
B046       5.870  0.645 P
B932      11.588  0.902 S
KMPB       6.620  0.680 P
KMPB      11.728  0.687 S
# 2020  3 18 23 16  2.07  40.4657 -124.4777   29.78  0.00  0.00  0.00  0.00     100001
B045       7.490  0.904 P
B045      13.678  0.787 S
B046       5.230  0.680 P
B046       9.788  0.847 S
B932      11.228  0.933 S
KCO       11.378  0.755 S
KMPB       6.340  0.921 P
KMPB      11.708  0.881 S
KPR       14.868  0.880 S
PETL       9.928  0.825 S
# 2020  3 18 22 15 38.68  40.4657 -124.4777   29.78  0.00  0.00  0.00  0.00     100002
B045       7.520  0.744 P
B045      13.668  0.652 S
B046       9.928  0.796 S
B932      11.368  0.744 S
KMPB       6.360  0.815 P
PETL      10.048  0.645 S
# 2020  3 19  4 37 31.99  40.4657 -124.4777   29.78  0.00  0.00  0.00  0.00     100003
89462      6.668  0.653 P
89462     12.288  0.668 S
B045       7.480  0.920 P
B045      13.378  0.789 S
B046       9.908  0.750 S
B932      11.268  0.923 S
KMPB       6.350  0.738 P
# 2020  4  9  7 28 16.20  40.4657 -124.4777   29.78  0.00  0.00  0.00  0.00     100004
B045       7.840  0.753 P
B046       5.870  0.838 P
B932      11.668  0.888 S
KMPB      11.808  0.667 S
# 2020  5 10 15 44 38.27  40.4657 -124.4777   29.78  0.00  0.00  0.00  0.00     100005
1582      12.858  0.797 S
1586      11.968  0.649 S
B045       7.480  0.759 P
B045      13.638  0.647 S
B046       9.238  0.892 S
B932      11.238  0.892 S
KCO       11.388  0.802 S
KMPB       6.340  0.913 P
KMPB      11.688  0.873 S
KPR       14.828  0.766 S
PETL       9.968  0.808 S
# 2020 11  4 19 21 49.35  40.4657 -124.4777   29.78  0.00  0.00  0.00  0.00     100006
B932      11.248  0.773 S
KMPB       5.960  0.661 P
KPR       14.938  0.640 S
RBOW       6.558  0.710 P
# 2020 11 20  4  1 34.30  40.4657 -124.4777   29.78  0.00  0.00  0.00  0.00     100007
1582      12.638  0.619 S
B045       7.490  0.837 P
B932      11.258  0.853 S
KMPB       6.330  0.800 P
# 2020 12 30 23  3 58.66  40.4657 -124.4777   29.78  0.00  0.00  0.00  0.00     100008
B045       7.260  0.719 P
B932      11.228  0.926 S
KMPB       6.100  0.714 P
KMPB      11.708  0.623 S
RBOW      12.398  0.706 S
# 2020 12 31 13 12 57.19  40.4657 -124.4777   29.78  0.00  0.00  0.00  0.00     100009
B045       7.250  0.749 P
B932      11.218  0.873 S
KMPB       6.090  0.768 P
KMPB      11.678  0.661 S
RBOW      12.388  0.645 S
# 2021  6 30 18 57 19.89  40.4657 -124.4777   29.78  0.00  0.00  0.00  0.00     100010
B046       9.898  0.724 S
B932      11.238  0.799 S
KMPB       6.340  0.676 P
KPR       14.868  0.603 S
RBOW      12.418  0.712 S
# 2021  7  6 10 17  1.88  40.4657 -124.4777   29.78  0.00  0.00  0.00  0.00     100011
B046       9.918  0.738 S
B932      11.248  0.829 S
KMPB      11.728  0.607 S
RBOW      12.398  0.615 S
# 2021  8  5  5 11 34.65  40.4657 -124.4777   29.78  0.00  0.00  0.00  0.00     100012
1582      12.678  0.696 S
1586      11.768  0.670 S
B045       7.490  0.807 P
B046       5.530  0.848 P
B932      11.248  0.855 S
KCO       11.408  0.706 S
KMPB       6.350  0.804 P
RBOW      12.308  0.652 S
# 2021  8  5 18 16 38.69  40.4657 -124.4777   29.78  0.00  0.00  0.00  0.00     100013
1586      11.948  0.664 S
B045       7.680  0.724 P
B046       5.720  0.711 P
B932      11.448  0.818 S
KCO       11.608  0.606 S
KMPB       6.540  0.784 P
PETL      10.248  0.661 S
RBOW       7.078  0.724 P
RBOW      12.498  0.639 S
# 2021  8 17  0  6 25.19  40.4657 -124.4777   29.78  0.00  0.00  0.00  0.00     100014
B046       5.430  0.796 P
B046       9.938  0.843 S
B932      11.228  0.885 S
KMPB       6.460  0.671 P
PETL       9.958  0.686 S
# 2021 10 23  3  0  5.12  40.4657 -124.4777   29.78  0.00  0.00  0.00  0.00     100015
1582      12.828  0.685 S
1586       6.368  0.676 P
1586      11.928  0.601 S
89255     12.468  0.714 S
89462     12.568  0.633 S
B045       7.680  0.904 P
B045      13.708  0.880 S
B932      11.478  0.872 S
KMPB       6.530  0.686 P
KPR       14.448  0.633 S
RBOW       7.068  0.719 P
RBOW      12.558  0.690 S
# 2021 11  3 10 40 27.03  40.4657 -124.4777   29.78  0.00  0.00  0.00  0.00     100016
B046       5.260  0.859 P
B046       9.908  0.857 S
B932      11.228  0.926 S
KMPB       6.200  0.636 P
KPR       14.848  0.878 S
PETL       9.898  0.647 S
RBOW      12.368  0.717 S
# 2021 11 18  6 17 11.96  40.4657 -124.4777   29.78  0.00  0.00  0.00  0.00     100017
B045       7.610  0.886 P
B046       5.520  0.781 P
B046       9.988  0.731 S
KPR       14.728  0.608 S
RBOW      12.368  0.696 S
# 2021 12 20 22 57 59.93  40.4657 -124.4777   29.78  0.00  0.00  0.00  0.00     100018
1582      12.758  0.799 S
1586       6.218  0.705 P
1586      11.848  0.891 S
89462      6.668  0.797 P
89462     12.448  0.756 S
B045       7.470  0.896 P
B045      13.578  0.733 S
B046       5.420  0.797 P
B046       9.928  0.864 S
B932      11.218  0.896 S
KCO       11.368  0.665 S
KMPB       6.320  0.867 P
PETL       9.948  0.732 S
RBOW       6.838  0.608 P
RBOW      12.338  0.728 S
# 2021 12 21 16 46 40.58  40.4657 -124.4777   29.78  0.00  0.00  0.00  0.00     100019
B045       7.190  0.862 P
B045      13.478  0.638 S
B932      11.238  0.842 S
KMPB       6.020  0.737 P
KPR       14.928  0.697 S
RBOW       6.598  0.634 P
RBOW      12.398  0.657 S
# 2021 12 22  1 49  7.29  40.4657 -124.4777   29.78  0.00  0.00  0.00  0.00     100020
1582      12.898  0.648 S
1586      11.978  0.768 S
B045       7.510  0.930 P
B046       5.390  0.710 P
B046       9.908  0.913 S
B932      11.218  0.939 S
KCO       11.358  0.803 S
KMPB       6.360  0.848 P
KMPB      11.708  0.863 S
KPR       14.848  0.905 S
RBOW       6.848  0.663 P
RBOW      12.368  0.923 S
# 2021 12 22  2  6  5.13  40.4657 -124.4777   29.78  0.00  0.00  0.00  0.00     100021
B045       7.510  0.679 P
B046       5.390  0.788 P
B046       9.898  0.904 S
B932      11.198  0.935 S
KPR       14.828  0.801 S
RBOW      12.368  0.774 S
# 2022 12 15  2 16  4.11  40.4657 -124.4777   29.78  2.47  6.46  1.09  0.00     100022
1582       6.748  1.000 P
1582      12.848  1.000 S
1586       6.218  1.000 P
1586      11.948  1.000 S
89255      6.568  1.000 P
89255     12.488  1.000 S
89462      6.698  1.000 P
89462     12.558  1.000 S
B045       7.500  1.000 P
B045      13.678  1.000 S
B046       5.370  1.000 P
B046       9.928  1.000 S
B932       5.970  1.000 P
B932      11.238  1.000 S
KCO        6.030  1.000 P
KCO       11.358  1.000 S
KMPB       6.340  1.000 P
KMPB      11.718  1.000 S
KPR        8.148  1.000 P
KPR       14.838  1.000 S
PETL       5.388  1.000 P
PETL       9.918  1.000 S
RBOW       6.818  1.000 P
RBOW      12.378  1.000 S
